LEMUR-1                 
1 40044U 14033AL  26064.66255443  .00003399  00000+0  39825-3 0  9999
2 40044  97.7708 216.8870 0049739  58.8222 301.7855 14.84775369630106
LEMUR-2-GREENBERG       
1 42837U 17042N   26064.46697005  .00022545  00000+0  83090-3 0  9993
2 42837  97.3766 245.8468 0009398  18.0268 342.1303 15.27781866472533
LEMUR-2-ANDIS           
1 42838U 17042P   26064.44028847  .00028096  00000+0  95685-3 0  9994
2 42838  97.3642 245.7075 0009409  18.4169 341.7411 15.30321098472566
LEMUR-2-MONSON          
1 42839U 17042Q   26064.45913569  .00020702  00000+0  83492-3 0  9999
2 42839  97.4022 245.9462 0006810   7.2307 352.9027 15.24819987472340
LEMUR-2-FURIAUS         
1 42840U 17042R   26064.56844377  .00029527  00000+0  11467-2 0  9999
2 42840  97.3740 244.1642 0007587  71.5362 288.6700 15.26004824472381
LEMUR-2-PETERG          
1 42841U 17042S   26064.49156092  .00023734  00000+0  83323-3 0  9997
2 42841  97.3969 249.6890 0003898 356.6134   3.5079 15.29401065472569
LEMUR-2-DEMBITZ         
1 42842U 17042T   26064.47719165  .00022237  00000+0  84596-3 0  9992
2 42842  97.3796 246.9722 0007185  30.8858 329.2802 15.26751822472501
LEMUR-2-ZACHARY         
1 42845U 17042W   26064.49870912  .00053712  00000+0  12700-2 0  9994
2 42845  97.3649 254.5532 0003680  32.8668 327.2807 15.41637964473187
LEMUR-2-JIN-LUEN        
1 43182U 18014C   26064.22420538  .00236840  00000+0  14399-2 0  9996
2 43182  97.5451 354.0918 0002111 124.2435 235.9030 15.76808820444769
LEMUR-2-KADI            
1 43184U 18014E   26064.57330318  .00105324  00000+0  11406-2 0  9990
2 43184  97.4716 349.0077 0000733  75.6339 284.5000 15.63218835444746
LEMUR-2-AMANDA-SVANTE   
1 48269U 21034B   26064.45510692  .00032190  00000+0  11717-2 0  9992
2 48269  97.5837 140.4634 0002246 216.8071 143.3014 15.28156990265185
LEMUR-2-SPECIAL-K       
1 48273U 21034F   26064.18263924  .00079425  00000+0  16942-2 0  9997
2 48273  97.5723 145.3016 0001486 220.2252 139.8886 15.44605954265541
LEMUR-2-EMBRIONOVIS     
1 56970U 23084AQ  26064.36752419  .00010697  00000+0  32158-3 0  9993
2 56970  97.6124 204.9098 0008542 329.6345  30.4402 15.34556177151746
LEMUR-2-MANO            
1 57390U 23100E   26064.59599909  .00144216  00000+0  17909-2 0  9998
2 57390  99.4549  85.7743 0001863  60.4341 299.7095 15.59500914145848
LEMUR-2-DEVERILL-M-T    
1 57391U 23100F   26064.60779399  .00030165  00000+0  90314-3 0  9993
2 57391  99.4575  73.9015 0008539  40.3746 319.8123 15.34465329145335
LEMUR-2-BASS            
1 58259U 23174D   26064.47052805  .00020748  00000+0  52808-3 0  9991
2 58259  97.3889 147.9948 0008073 176.7962 183.3337 15.39578162129381
