[{"OBJECT_NAME":"LEMUR-1","OBJECT_ID":"2014-033AL","EPOCH":"2026-03-05T15:54:04.702752","MEAN_MOTION":14.84775369,"ECCENTRICITY":0.00497399,"INCLINATION":97.7708,"RA_OF_ASC_NODE":216.887,"ARG_OF_PERICENTER":58.8222,"MEAN_ANOMALY":301.7855,"EPHEMERIS_TYPE":0,"CLASSIFICATION_TYPE":"U","NORAD_CAT_ID":40044,"ELEMENT_SET_NO":999,"REV_AT_EPOCH":63010,"BSTAR":0.00039825336,"MEAN_MOTION_DOT":3.399e-5,"MEAN_MOTION_DDOT":0},{"OBJECT_NAME":"LEMUR-2-GREENBERG","OBJECT_ID":"2017-042N","EPOCH":"2026-03-05T11:12:26.212320","MEAN_MOTION":15.27781866,"ECCENTRICITY":0.00093988,"INCLINATION":97.3766,"RA_OF_ASC_NODE":245.8468,"ARG_OF_PERICENTER":18.0268,"MEAN_ANOMALY":342.1303,"EPHEMERIS_TYPE":0,"CLASSIFICATION_TYPE":"U","NORAD_CAT_ID":42837,"ELEMENT_SET_NO":999,"REV_AT_EPOCH":47253,"BSTAR":0.00083089528,"MEAN_MOTION_DOT":0.00022545,"MEAN_MOTION_DDOT":0},{"OBJECT_NAME":"LEMUR-2-ANDIS","OBJECT_ID":"2017-042P","EPOCH":"2026-03-05T10:34:00.923808","MEAN_MOTION":15.30321098,"ECCENTRICITY":0.00094099,"INCLINATION":97.3642,"RA_OF_ASC_NODE":245.7075,"ARG_OF_PERICENTER":18.4169,"MEAN_ANOMALY":341.7411,"EPHEMERIS_TYPE":0,"CLASSIFICATION_TYPE":"U","NORAD_CAT_ID":42838,"ELEMENT_SET_NO":999,"REV_AT_EPOCH":47256,"BSTAR":0.00095684807,"MEAN_MOTION_DOT":0.00028096,"MEAN_MOTION_DDOT":0},{"OBJECT_NAME":"LEMUR-2-MONSON","OBJECT_ID":"2017-042Q","EPOCH":"2026-03-05T11:01:09.323616","MEAN_MOTION":15.24819987,"ECCENTRICITY":0.000681,"INCLINATION":97.4022,"RA_OF_ASC_NODE":245.9462,"ARG_OF_PERICENTER":7.2307,"MEAN_ANOMALY":352.9027,"EPHEMERIS_TYPE":0,"CLASSIFICATION_TYPE":"U","NORAD_CAT_ID":42839,"ELEMENT_SET_NO":999,"REV_AT_EPOCH":47234,"BSTAR":0.00083491593,"MEAN_MOTION_DOT":0.00020702,"MEAN_MOTION_DDOT":0},{"OBJECT_NAME":"LEMUR-2-FURIAUS","OBJECT_ID":"2017-042R","EPOCH":"2026-03-05T13:38:33.541728","MEAN_MOTION":15.26004824,"ECCENTRICITY":0.00075879,"INCLINATION":97.374,"RA_OF_ASC_NODE":244.1642,"ARG_OF_PERICENTER":71.5362,"MEAN_ANOMALY":288.67,"EPHEMERIS_TYPE":0,"CLASSIFICATION_TYPE":"U","NORAD_CAT_ID":42840,"ELEMENT_SET_NO":999,"REV_AT_EPOCH":47238,"BSTAR":0.001146695,"MEAN_MOTION_DOT":0.00029527,"MEAN_MOTION_DDOT":0},{"OBJECT_NAME":"LEMUR-2-PETERG","OBJECT_ID":"2017-042S","EPOCH":"2026-03-05T11:47:50.863488","MEAN_MOTION":15.29401065,"ECCENTRICITY":0.00038986,"INCLINATION":97.3969,"RA_OF_ASC_NODE":249.689,"ARG_OF_PERICENTER":356.6134,"MEAN_ANOMALY":3.5079,"EPHEMERIS_TYPE":0,"CLASSIFICATION_TYPE":"U","NORAD_CAT_ID":42841,"ELEMENT_SET_NO":999,"REV_AT_EPOCH":47256,"BSTAR":0.00083322954,"MEAN_MOTION_DOT":0.00023734,"MEAN_MOTION_DDOT":0},{"OBJECT_NAME":"LEMUR-2-DEMBITZ","OBJECT_ID":"2017-042T","EPOCH":"2026-03-05T11:27:09.358560","MEAN_MOTION":15.26751822,"ECCENTRICITY":0.00071857,"INCLINATION":97.3796,"RA_OF_ASC_NODE":246.9722,"ARG_OF_PERICENTER":30.8858,"MEAN_ANOMALY":329.2802,"EPHEMERIS_TYPE":0,"CLASSIFICATION_TYPE":"U","NORAD_CAT_ID":42842,"ELEMENT_SET_NO":999,"REV_AT_EPOCH":47250,"BSTAR":0.00084596498,"MEAN_MOTION_DOT":0.00022237,"MEAN_MOTION_DDOT":0},{"OBJECT_NAME":"LEMUR-2-ZACHARY","OBJECT_ID":"2017-042W","EPOCH":"2026-03-05T11:58:08.467968","MEAN_MOTION":15.41637964,"ECCENTRICITY":0.00036806,"INCLINATION":97.3649,"RA_OF_ASC_NODE":254.5532,"ARG_OF_PERICENTER":32.8668,"MEAN_ANOMALY":327.2807,"EPHEMERIS_TYPE":0,"CLASSIFICATION_TYPE":"U","NORAD_CAT_ID":42845,"ELEMENT_SET_NO":999,"REV_AT_EPOCH":47318,"BSTAR":0.0012699998,"MEAN_MOTION_DOT":0.00053712,"MEAN_MOTION_DDOT":0},{"OBJECT_NAME":"LEMUR-2-JIN-LUEN","OBJECT_ID":"2018-014C","EPOCH":"2026-03-05T05:22:51.344832","MEAN_MOTION":15.7680882,"ECCENTRICITY":0.00021117,"INCLINATION":97.5451,"RA_OF_ASC_NODE":354.0918,"ARG_OF_PERICENTER":124.2435,"MEAN_ANOMALY":235.903,"EPHEMERIS_TYPE":0,"CLASSIFICATION_TYPE":"U","NORAD_CAT_ID":43182,"ELEMENT_SET_NO":999,"REV_AT_EPOCH":44476,"BSTAR":0.0014398921,"MEAN_MOTION_DOT":0.0023684,"MEAN_MOTION_DDOT":0},{"OBJECT_NAME":"LEMUR-2-KADI","OBJECT_ID":"2018-014E","EPOCH":"2026-03-05T13:45:33.394752","MEAN_MOTION":15.63218835,"ECCENTRICITY":7.331e-5,"INCLINATION":97.4716,"RA_OF_ASC_NODE":349.0077,"ARG_OF_PERICENTER":75.6339,"MEAN_ANOMALY":284.5,"EPHEMERIS_TYPE":0,"CLASSIFICATION_TYPE":"U","NORAD_CAT_ID":43184,"ELEMENT_SET_NO":999,"REV_AT_EPOCH":44474,"BSTAR":0.0011405854,"MEAN_MOTION_DOT":0.00105324,"MEAN_MOTION_DDOT":0},{"OBJECT_NAME":"LEMUR-2-AMANDA-SVANTE","OBJECT_ID":"2021-034B","EPOCH":"2026-03-05T10:55:21.237888","MEAN_MOTION":15.2815699,"ECCENTRICITY":0.00022467,"INCLINATION":97.5837,"RA_OF_ASC_NODE":140.4634,"ARG_OF_PERICENTER":216.8071,"MEAN_ANOMALY":143.3014,"EPHEMERIS_TYPE":0,"CLASSIFICATION_TYPE":"U","NORAD_CAT_ID":48269,"ELEMENT_SET_NO":999,"REV_AT_EPOCH":26518,"BSTAR":0.0011717298,"MEAN_MOTION_DOT":0.0003219,"MEAN_MOTION_DDOT":0},{"OBJECT_NAME":"LEMUR-2-SPECIAL-K","OBJECT_ID":"2021-034F","EPOCH":"2026-03-05T04:23:00.030336","MEAN_MOTION":15.44605954,"ECCENTRICITY":0.00014866,"INCLINATION":97.5723,"RA_OF_ASC_NODE":145.3016,"ARG_OF_PERICENTER":220.2252,"MEAN_ANOMALY":139.8886,"EPHEMERIS_TYPE":0,"CLASSIFICATION_TYPE":"U","NORAD_CAT_ID":48273,"ELEMENT_SET_NO":999,"REV_AT_EPOCH":26554,"BSTAR":0.0016941543,"MEAN_MOTION_DOT":0.00079425,"MEAN_MOTION_DDOT":0},{"OBJECT_NAME":"LEMUR-2-EMBRIONOVIS","OBJECT_ID":"2023-084AQ","EPOCH":"2026-03-05T08:49:14.090016","MEAN_MOTION":15.34556177,"ECCENTRICITY":0.00085421,"INCLINATION":97.6124,"RA_OF_ASC_NODE":204.9098,"ARG_OF_PERICENTER":329.6345,"MEAN_ANOMALY":30.4402,"EPHEMERIS_TYPE":0,"CLASSIFICATION_TYPE":"U","NORAD_CAT_ID":56970,"ELEMENT_SET_NO":999,"REV_AT_EPOCH":15174,"BSTAR":0.00032158403,"MEAN_MOTION_DOT":0.00010697,"MEAN_MOTION_DDOT":0},{"OBJECT_NAME":"LEMUR-2-MANO","OBJECT_ID":"2023-100E","EPOCH":"2026-03-05T14:18:14.321376","MEAN_MOTION":15.59500914,"ECCENTRICITY":0.00018639,"INCLINATION":99.4549,"RA_OF_ASC_NODE":85.7743,"ARG_OF_PERICENTER":60.4341,"MEAN_ANOMALY":299.7095,"EPHEMERIS_TYPE":0,"CLASSIFICATION_TYPE":"U","NORAD_CAT_ID":57390,"ELEMENT_SET_NO":999,"REV_AT_EPOCH":14584,"BSTAR":0.0017908854,"MEAN_MOTION_DOT":0.00144216,"MEAN_MOTION_DDOT":0},{"OBJECT_NAME":"LEMUR-2-DEVERILL-M-T","OBJECT_ID":"2023-100F","EPOCH":"2026-03-05T14:35:13.400736","MEAN_MOTION":15.34465329,"ECCENTRICITY":0.00085392,"INCLINATION":99.4575,"RA_OF_ASC_NODE":73.9015,"ARG_OF_PERICENTER":40.3746,"MEAN_ANOMALY":319.8123,"EPHEMERIS_TYPE":0,"CLASSIFICATION_TYPE":"U","NORAD_CAT_ID":57391,"ELEMENT_SET_NO":999,"REV_AT_EPOCH":14533,"BSTAR":0.00090314086,"MEAN_MOTION_DOT":0.00030165,"MEAN_MOTION_DDOT":0},{"OBJECT_NAME":"LEMUR-2-BASS","OBJECT_ID":"2023-174D","EPOCH":"2026-03-05T11:17:33.623520","MEAN_MOTION":15.39578162,"ECCENTRICITY":0.00080735,"INCLINATION":97.3889,"RA_OF_ASC_NODE":147.9948,"ARG_OF_PERICENTER":176.7962,"MEAN_ANOMALY":183.3337,"EPHEMERIS_TYPE":0,"CLASSIFICATION_TYPE":"U","NORAD_CAT_ID":58259,"ELEMENT_SET_NO":999,"REV_AT_EPOCH":12938,"BSTAR":0.0005280798,"MEAN_MOTION_DOT":0.00020748,"MEAN_MOTION_DDOT":0}]
